NOAA 15                 
1 25338U 98030A   22330.41417327  .00000121  00000+0  68674-4 0  9998
2 25338  98.6290 357.7200 0010393 179.7420 180.3767 14.26200388276356
DMSP 5D-3 F15 (USA 147) 
1 25991U 99067A   22329.88126341  .00000114  00000+0  80119-4 0  9996
2 25991  99.0640 324.3133 0011084  91.3741  27.6891 14.16602405186629
DMSP 5D-3 F16 (USA 172) 
1 28054U 03048A   22330.48129640  .00000054  00000+0  52607-4 0  9990
2 28054  99.0014 322.2314 0006727 214.2868 308.9381 14.13710000985915
NOAA 18                 
1 28654U 05018A   22330.45954180  .00000180  00000+0  12066-3 0  9991
2 28654  98.9338  40.6416 0013617 230.9259 129.0702 14.12812416902941
METEOSAT-9 (MSG-2)      
1 28912U 05049B   22329.93952817  .00000140  00000+0  00000+0 0  9995
2 28912   6.3850  65.2158 0001244 180.4903 203.0385  1.00271879 62058
EWS-G1 (GOES 13)        
1 29155U 06018A   22329.84371880  .00000053  00000+0  00000+0 0  9990
2 29155   0.9841  93.8824 0006508 142.1687 193.7708  1.00271594 30342
DMSP 5D-3 F17 (USA 191) 
1 29522U 06050A   22330.38990027  .00000096  00000+0  72999-4 0  9993
2 29522  98.7622 342.3822 0010295 155.3502 204.8165 14.14140937828792
FENGYUN 3A              
1 32958U 08026A   22330.46368008  .00000067  00000+0  52594-4 0  9999
2 32958  98.5268 286.6469 0007662 276.3497  83.6806 14.18764390751307
FENGYUN 2E              
1 33463U 08066A   22329.85309728 -.00000193  00000+0  00000+0 0  9991
2 33463   6.2631  64.3362 0001028 268.6068 125.6469  1.00277591 51067
NOAA 19                 
1 33591U 09005A   22330.47942167  .00000169  00000+0  11594-3 0  9993
2 33591  99.1298   7.8845 0014843  93.2617 267.0252 14.12642837711327
GOES 14                 
1 35491U 09033A   22330.55859131 -.00000082  00000+0  00000+0 0  9993
2 35491   0.2095 263.2705 0018056 318.7033 300.4092  1.00271349 49132
METEOR-M 1              
1 35865U 09049A   22330.33199695  .00000086  00000+0  57923-4 0  9997
2 35865  98.5519 295.7538 0003308 106.2935 253.8607 14.22381723684692
DMSP 5D-3 F18 (USA 210) 
1 35951U 09057A   22330.49865521  .00000168  00000+0  11196-3 0  9999
2 35951  98.7432 306.0492 0011086 351.2814   8.8165 14.13593331676002
GOES 15                 
1 36411U 10008A   22330.44044652  .00000066  00000+0  00000+0 0  9993
2 36411   0.1677 282.0177 0003263 274.0116 259.8234  1.00277937 46638
COMS 1                  
1 36744U 10032A   22329.95600236 -.00000329  00000+0  00000+0 0  9992
2 36744   1.4868  91.7353 0000702 124.9912 320.4816  1.00272108 45620
FENGYUN 3B              
1 37214U 10059A   22330.36293070  .00000000  00000+0  24517-4 0  9994
2 37214  99.0928 339.2221 0021287 258.0819 101.7988 14.14275585623840
SUOMI NPP               
1 37849U 11061A   22330.40292525  .00000068  00000+0  53145-4 0  9994
2 37849  98.7484 266.7997 0001073  90.3443  60.3147 14.19563445574169
FENGYUN 2F              
1 38049U 12002A   22330.40535640 -.00000346  00000+0  00000+0 0  9998
2 38049   4.1871  78.4196 0002406 276.0146 329.1871  1.00272155 39860
METEOSAT-10 (MSG-3)     
1 38552U 12035B   22330.29702265  .00000075  00000+0  00000+0 0  9997
2 38552   1.7867  49.1668 0001635 136.2638 356.2768  1.00271568 38190
METOP-B                 
1 38771U 12049A   22330.47230324  .00000088  00000+0  60220-4 0  9996
2 38771  98.7094  27.9314 0000453  97.5567  80.8322 14.21478617528742
FENGYUN 3C              
1 39260U 13052A   22330.37418173  .00000088  00000+0  65132-4 0  9991
2 39260  98.4426 350.2001 0011362 162.5040 197.6532 14.15962111474837
METEOR-M 2              
1 40069U 14037A   22330.37569858  .00000016  00000+0  26476-4 0  9990
2 40069  98.4277 340.7617 0005108 201.7652 158.3313 14.20727594434852
HIMAWARI-8              
1 40267U 14060A   22329.87715640 -.00000260  00000+0  00000+0 0  9993
2 40267   0.0665 121.6240 0000938 129.2483 270.3762  1.00271059 29736
FENGYUN 2G              
1 40367U 14090A   22329.84193671 -.00000287  00000+0  00000+0 0  9997
2 40367   2.3376  87.7861 0001642 221.0554 158.5621  1.00271834 28972
METEOSAT-11 (MSG-4)     
1 40732U 15034A   22329.64350169  .00000012  00000+0  00000+0 0  9992
2 40732   0.4876 348.5342 0000774 137.2139 170.5564  1.00268819 26984
ELEKTRO-L 2             
1 41105U 15074A   22329.92758656 -.00000101  00000+0  00000+0 0  9995
2 41105   3.3908  86.2054 0002899 141.1636 156.9543  1.00270880 25489
HIMAWARI-9              
1 41836U 16064A   22330.52397490 -.00000262  00000+0  00000+0 0  9997
2 41836   0.0441 140.4632 0000867 139.8006 114.5633  1.00272784 22289
GOES 16                 
1 41866U 16071A   22330.15607472 -.00000234  00000+0  00000+0 0  9990
2 41866   0.0553 260.6741 0000557  27.0849 118.3207  1.00269824 22089
FENGYUN 4A              
1 41882U 16077A   22329.88382907 -.00000314  00000+0  00000+0 0  9994
2 41882   0.0804 296.9007 0005513  98.9229  91.7968  1.00269624 21950
CYGFM05                 
1 41884U 16078A   22329.90276846  .00003312  00000+0  16324-3 0  9994
2 41884  34.9562 275.6486 0013402  99.7853 260.4373 15.17388769329313
CYGFM04                 
1 41885U 16078B   22330.09444474  .00002986  00000+0  14508-3 0  9999
2 41885  34.9492 262.7636 0012016 122.0183 238.1698 15.17942045329557
CYGFM02                 
1 41886U 16078C   22329.81809324  .00003398  00000+0  16462-3 0  9996
2 41886  34.9584 266.7504 0012568 112.0875 248.1173 15.17981481329430
CYGFM01                 
1 41887U 16078D   22330.18877524  .00003169  00000+0  15713-3 0  9990
2 41887  34.9531 276.5191 0013854 101.7111 258.5156 15.17190084329427
CYGFM08                 
1 41888U 16078E   22330.18815207  .00003100  00000+0  15161-3 0  9993
2 41888  34.9498 268.3979 0013101 115.6221 244.5846 15.17681983329473
CYGFM06                 
1 41889U 16078F   22330.12559667  .00003363  00000+0  16295-3 0  9993
2 41889  34.9577 263.4807 0011558 115.3583 244.8327 15.17998851329551
CYGFM07                 
1 41890U 16078G   22330.11724901  .00003184  00000+0  15465-3 0  9998
2 41890  34.9515 262.3995 0011439 120.3842 239.8002 15.17926179329551
CYGFM03                 
1 41891U 16078H   22330.18160376  .00003290  00000+0  15976-3 0  9991
2 41891  34.9547 262.5091 0010957 118.7492 241.4322 15.17930210329557
FENGYUN 3D              
1 43010U 17072A   22330.36531301  .00000061  00000+0  50726-4 0  9997
2 43010  98.8344 274.2818 0001753 136.2665 223.8649 14.19113491260739
NOAA 20                 
1 43013U 17073A   22330.54897644  .00000057  00000+0  47859-4 0  9994
2 43013  98.7323 266.6562 0000829  54.8558 305.2696 14.19561676260221
GOES 17                 
1 43226U 18022A   22330.47735144  .00000110  00000+0  00000+0 0  9995
2 43226   0.0075  64.9027 0000280 168.4179 226.5996  1.00272224 17417
FENGYUN 2H              
1 43491U 18050A   22329.80781905 -.00000110  00000+0  00000+0 0  9992
2 43491   1.5548  94.1251 0003361  71.2390 269.1338  1.00268334 16403
METOP-C                 
1 43689U 18087A   22330.40375127  .00000090  00000+0  61158-4 0  9996
2 43689  98.7140  27.8973 0002144 295.1356  64.9599 14.21484620210310
GEO-KOMPSAT-2A          
1 43823U 18100A   22330.36160645 -.00000330  00000+0  00000+0 0  9996
2 43823   0.0625 109.3620 0000840  30.9695 183.4011  1.00271896 14636
METEOR-M2 2             
1 44387U 19038A   22330.35406287  .00000020  00000+0  28186-4 0  9992
2 44387  98.7459 290.0030 0001785 129.8219 230.3119 14.23731957176440
FENGYUN 3E              
1 49008U 21062A   22330.39428338  .00000030  00000+0  34905-4 0  9999
2 49008  98.7170 329.8451 0000914 214.2018 145.9103 14.19747157 72298
GOES 18                 
1 51850U 22021A   22330.57708483  .00000108  00000+0  00000+0 0  9995
2 51850   0.0062 222.0850 0001670  14.5953 259.6470  1.00272170  2789
JPSS-2                  
1 54234U 22150A   22330.40427802 -.00000217  00000+0 -74870-4 0  9996
2 54234  98.6966 266.6251 0023367 194.1525 165.8985 14.24089652  2274
